{
    "links": {
        "self": "http://www.neowsapp.com/rest/v1/neo/3457848?api_key=iIulBulltgU6a56xZRHN4H3l9WmuAYTsLGpBGhQ2"
    },
    "id": "3457848",
    "neo_reference_id": "3457848",
    "name": "(2009 HJ21)",
    "designation": "2009 HJ21",
    "nasa_jpl_url": "http://ssd.jpl.nasa.gov/sbdb.cgi?sstr=3457848",
    "absolute_magnitude_h": 27.5,
    "estimated_diameter": {
        "kilometers": {
            "estimated_diameter_min": 0.008405334,
            "estimated_diameter_max": 0.0187948982
        },
        "meters": {
            "estimated_diameter_min": 8.4053340207,
            "estimated_diameter_max": 18.7948982439
        },
        "miles": {
            "estimated_diameter_min": 0.0052228308,
            "estimated_diameter_max": 0.0116786047
        },
        "feet": {
            "estimated_diameter_min": 27.5765560686,
            "estimated_diameter_max": 61.6630539546
        }
    },
    "is_potentially_hazardous_asteroid": false,
    "close_approach_data": [
        {
            "close_approach_date": "2009-04-23",
            "close_approach_date_full": "2009-Apr-23 01:10",
            "epoch_date_close_approach": 1240449000000,
            "relative_velocity": {
                "kilometers_per_second": "20.3750107407",
                "kilometers_per_hour": "73350.03866643",
                "miles_per_hour": "45576.8615258159"
            },
            "miss_distance": {
                "astronomical": "0.0032445384",
                "lunar": "1.2621254376",
                "kilometers": "485376.033773208",
                "miles": "301598.6820699504"
            },
            "orbiting_body": "Earth"
        },
        {
            "close_approach_date": "2009-04-23",
            "close_approach_date_full": "2009-Apr-23 05:36",
            "epoch_date_close_approach": 1240464960000,
            "relative_velocity": {
                "kilometers_per_second": "19.978971735",
                "kilometers_per_hour": "71924.2982459172",
                "miles_per_hour": "44690.9618739701"
            },
            "miss_distance": {
                "astronomical": "0.002855773",
                "lunar": "1.110895697",
                "kilometers": "427217.55800351",
                "miles": "265460.680968038"
            },
            "orbiting_body": "Moon"
        },
        {
            "close_approach_date": "2061-04-01",
            "close_approach_date_full": "2061-Apr-01 18:18",
            "epoch_date_close_approach": 2879605080000,
            "relative_velocity": {
                "kilometers_per_second": "24.6620809813",
                "kilometers_per_hour": "88783.491532631",
                "miles_per_hour": "55166.6089470395"
            },
            "miss_distance": {
                "astronomical": "0.1319744906",
                "lunar": "51.3380768434",
                "kilometers": "19743102.688095022",
                "miles": "12267795.1451624236"
            },
            "orbiting_body": "Venus"
        }
    ],
    "orbital_data": {
        "orbit_id": "7",
        "orbit_determination_date": "2017-04-06 09:00:44",
        "first_observation_date": "2009-04-21",
        "last_observation_date": "2009-04-22",
        "data_arc_in_days": 1,
        "observations_used": 19,
        "orbit_uncertainty": "8",
        "minimum_orbit_intersection": ".00220982",
        "jupiter_tisserand_invariant": "4.037",
        "epoch_osculation": "2454943.5",
        "eccentricity": ".647546919458049",
        "semi_major_axis": "1.634066809170327",
        "inclination": "3.127353146489849",
        "ascending_node_longitude": "30.73589631190978",
        "orbital_period": "762.9624075245633",
        "perihelion_distance": ".5759318807034383",
        "perihelion_argument": "277.2945502300895",
        "aphelion_distance": "2.692201737637216",
        "perihelion_time": "2454994.803409088047",
        "mean_anomaly": "335.7927427491212",
        "mean_motion": ".4718450036981802",
        "equinox": "J2000",
        "orbit_class": {
            "orbit_class_type": "APO",
            "orbit_class_description": "Near-Earth asteroid orbits which cross the Earth’s orbit similar to that of 1862 Apollo",
            "orbit_class_range": "a (semi-major axis) > 1.0 AU; q (perihelion) < 1.017 AU"
        }
    },
    "is_sentry_object": false
}